GNOMES-1                
1 46266U 20059B   26068.53916665  .00004080  00000+0  33422-3 0  9991
2 46266  97.8057 278.7760 0005451 357.8604   2.2595 14.99848479300657
STARLINK-4353           
1 53214U 22084AB  26068.74958008 -.00000005  00000+0  41667-5 0  9998
2 53214  97.6033 130.2603 0000849  92.4598 267.6723 15.01262056199323
